{"type": "FeatureCollection", "features": [ {"type": "Feature", "properties": {"norad_id": 66839, "name": "STARLINK-35717", "group": "last-30-days", "lat": 33.66673703671138, "lon": -28.18614801984732, "alt_km": 407.97903805680926, "timestamp": "2025-12-24T14:43:27.721393+00:00", "meta": {"OBJECT_NAME": "STARLINK-35717", "OBJECT_ID": "2025-280U", "EPOCH": "2025-12-24T04:49:45.892704", "MEAN_MOTION": 15.52541972, "ECCENTRICITY": 0.00033672, "INCLINATION": 70.0008, "RA_OF_ASC_NODE": 166.9825, "ARG_OF_PERICENTER": 275.1827, "MEAN_ANOMALY": 84.8975, "EPHEMERIS_TYPE": 0, "CLASSIFICATION_TYPE": "U", "NORAD_CAT_ID": 66839, "ELEMENT_SET_NO": 999, "REV_AT_EPOCH": 471, "BSTAR": 0.0011079985, "MEAN_MOTION_DOT": 0.00068646, "MEAN_MOTION_DDOT": 0}, "tle": {"line1": "1 66839U 25280U   25358.20122561  .00068646  00000+0  11080-2 0  9992", "line2": "2 66839  70.0008 166.9825 0003367 275.1827  84.8975 15.52541972  4711"}}, "geometry": {"type": "Point", "coordinates": [-28.18614801984732, 33.66673703671138]}}, {"type": "Feature", "properties": {"norad_id": 66840, "name": "STARLINK-35837", "group": "last-30-days", "lat": 30.091223559616225, "lon": -26.334208754620338, "alt_km": 408.0877021353399, "timestamp": "2025-12-24T14:43:27.721403+00:00", "meta": {"OBJECT_NAME": "STARLINK-35837", "OBJECT_ID": "2025-280V", "EPOCH": "2025-12-24T04:48:45.669312", "MEAN_MOTION": 15.52526403, "ECCENTRICITY": 0.00032619, "INCLINATION": 70.0006, "RA_OF_ASC_NODE": 166.9808, "ARG_OF_PERICENTER": 268.2176, "MEAN_ANOMALY": 91.8638, "EPHEMERIS_TYPE": 0, "CLASSIFICATION_TYPE": "U", "NORAD_CAT_ID": 66840, "ELEMENT_SET_NO": 999, "REV_AT_EPOCH": 471, "BSTAR": 0.0019708285, "MEAN_MOTION_DOT": 0.00123005, "MEAN_MOTION_DDOT": 0}, "tle": {"line1": "1 66840U 25280V   25358.20052858  .00123005  00000+0  19708-2 0  9991", "line2": "2 66840  70.0006 166.9808 0003261 268.2176  91.8638 15.52526403  4711"}}, "geometry": {"type": "Point", "coordinates": [-26.334208754620338, 30.091223559616225]}}, {"type": "Feature", "properties": {"norad_id": 66841, "name": "STARLINK-35715", "group": "last-30-days", "lat": 28.31854101086079, "lon": -25.47072958729484, "alt_km": 408.4850397653636, "timestamp": "2025-12-24T14:43:27.721413+00:00", "meta": {"OBJECT_NAME": "STARLINK-35715", "OBJECT_ID": "2025-280W", "EPOCH": "2025-12-24T04:48:17.214336", "MEAN_MOTION": 15.52591873, "ECCENTRICITY": 0.00033022, "INCLINATION": 70.0006, "RA_OF_ASC_NODE": 166.9796, "ARG_OF_PERICENTER": 277.2327, "MEAN_ANOMALY": 82.8484, "EPHEMERIS_TYPE": 0, "CLASSIFICATION_TYPE": "U", "NORAD_CAT_ID": 66841, "ELEMENT_SET_NO": 999, "REV_AT_EPOCH": 471, "BSTAR": 0.0015764786, "MEAN_MOTION_DOT": 0.00098283, "MEAN_MOTION_DDOT": 0}, "tle": {"line1": "1 66841U 25280W   25358.20019924  .00098283  00000+0  15765-2 0  9997", "line2": "2 66841  70.0006 166.9796 0003302 277.2327  82.8484 15.52591873  4714"}}, "geometry": {"type": "Point", "coordinates": [-25.47072958729484, 28.31854101086079]}}, {"type": "Feature", "properties": {"norad_id": 66842, "name": "STARLINK-35769", "group": "last-30-days", "lat": 26.591545782157613, "lon": -24.659199538267558, "alt_km": 408.83578845867214, "timestamp": "2025-12-24T14:43:27.721423+00:00", "meta": {"OBJECT_NAME": "STARLINK-35769", "OBJECT_ID": "2025-280X", "EPOCH": "2025-12-24T04:47:47.342400", "MEAN_MOTION": 15.52543801, "ECCENTRICITY": 0.0003013, "INCLINATION": 70.0007, "RA_OF_ASC_NODE": 166.9783, "ARG_OF_PERICENTER": 281.1483, "MEAN_ANOMALY": 78.9365, "EPHEMERIS_TYPE": 0, "CLASSIFICATION_TYPE": "U", "NORAD_CAT_ID": 66842, "ELEMENT_SET_NO": 999, "REV_AT_EPOCH": 471, "BSTAR": 0.0016376341, "MEAN_MOTION_DOT": 0.00101971, "MEAN_MOTION_DDOT": 0}, "tle": {"line1": "1 66842U 25280X   25358.19985350  .00101971  00000+0  16376-2 0  9999", "line2": "2 66842  70.0007 166.9783 0003013 281.1483  78.9365 15.52543801  4710"}}, "geometry": {"type": "Point", "coordinates": [-24.659199538267558, 26.591545782157613]}}, {"type": "Feature", "properties": {"norad_id": 66843, "name": "STARLINK-35997", "group": "last-30-days", "lat": 23.078927915795987, "lon": -23.088331956236537, "alt_km": 409.2451515624307, "timestamp": "2025-12-24T14:43:27.721437+00:00", "meta": {"OBJECT_NAME": "STARLINK-35997", "OBJECT_ID": "2025-280Y", "EPOCH": "2025-12-24T06:19:34.778208", "MEAN_MOTION": 15.52546508, "ECCENTRICITY": 0.00033947, "INCLINATION": 70.0008, "RA_OF_ASC_NODE": 166.7977, "ARG_OF_PERICENTER": 272.0861, "MEAN_ANOMALY": 87.9937, "EPHEMERIS_TYPE": 0, "CLASSIFICATION_TYPE": "U", "NORAD_CAT_ID": 66843, "ELEMENT_SET_NO": 999, "REV_AT_EPOCH": 472, "BSTAR": 0.00097524597, "MEAN_MOTION_DOT": 0.00060348, "MEAN_MOTION_DDOT": 0}, "tle": {"line1": "1 66843U 25280Y   25358.26359697  .00060348  00000+0  97525-3 0  9995", "line2": "2 66843  70.0008 166.7977 0003394 272.0861  87.9937 15.52546508  4729"}}, "geometry": {"type": "Point", "coordinates": [-23.088331956236537, 23.078927915795987]}}, {"type": "Feature", "properties": {"norad_id": 66844, "name": "STARLINK-36073", "group": "last-30-days", "lat": 24.808123344080556, "lon": -23.849152381249592, "alt_km": 409.0863099672961, "timestamp": "2025-12-24T14:43:27.721449+00:00", "meta": {"OBJECT_NAME": "STARLINK-36073", "OBJECT_ID": "2025-280Z", "EPOCH": "2025-12-24T04:47:17.733984", "MEAN_MOTION": 15.52556043, "ECCENTRICITY": 0.00033079, "INCLINATION": 70.0007, "RA_OF_ASC_NODE": 166.9766, "ARG_OF_PERICENTER": 279.0621, "MEAN_ANOMALY": 81.0192, "EPHEMERIS_TYPE": 0, "CLASSIFICATION_TYPE": "U", "NORAD_CAT_ID": 66844, "ELEMENT_SET_NO": 999, "REV_AT_EPOCH": 468, "BSTAR": 0.0016479221, "MEAN_MOTION_DOT": 0.0010267, "MEAN_MOTION_DDOT": 0}, "tle": {"line1": "1 66844U 25280Z   25358.19951081  .00102670  00000+0  16479-2 0  9996", "line2": "2 66844  70.0007 166.9766 0003307 279.0621  81.0192 15.52556043  4680"}}, "geometry": {"type": "Point", "coordinates": [-23.849152381249592, 24.808123344080556]}}, {"type": "Feature", "properties": {"norad_id": 66845, "name": "STARLINK-36068", "group": "last-30-days", "lat": 17.68967886943252, "lon": -20.83734800638286, "alt_km": 409.8500884621244, "timestamp": "2025-12-24T14:43:27.721461+00:00", "meta": {"OBJECT_NAME": "STARLINK-36068", "OBJECT_ID": "2025-280AA", "EPOCH": "2025-12-24T01:39:45.478368", "MEAN_MOTION": 15.52545504, "ECCENTRICITY": 0.00033745, "INCLINATION": 70.0008, "RA_OF_ASC_NODE": 167.3235, "ARG_OF_PERICENTER": 271.9294, "MEAN_ANOMALY": 88.1506, "EPHEMERIS_TYPE": 0, "CLASSIFICATION_TYPE": "U", "NORAD_CAT_ID": 66845, "ELEMENT_SET_NO": 999, "REV_AT_EPOCH": 469, "BSTAR": 0.00072318066, "MEAN_MOTION_DOT": 0.00044616, "MEAN_MOTION_DDOT": 0}, "tle": {"line1": "1 66845U 25280AA  25358.06927637  .00044616  00000+0  72318-3 0  9993", "line2": "2 66845  70.0008 167.3235 0003374 271.9294  88.1506 15.52545504  4697"}}, "geometry": {"type": "Point", "coordinates": [-20.83734800638286, 17.68967886943252]}}, {"type": "Feature", "properties": {"norad_id": 66846, "name": "STARLINK-36055", "group": "last-30-days", "lat": 21.2446850720804, "lon": -22.302448732982754, "alt_km": 409.36346403758125, "timestamp": "2025-12-24T14:43:27.721471+00:00", "meta": {"OBJECT_NAME": "STARLINK-36055", "OBJECT_ID": "2025-280AB", "EPOCH": "2025-12-24T01:40:44.785920", "MEAN_MOTION": 15.52546147, "ECCENTRICITY": 0.00033, "INCLINATION": 70.0007, "RA_OF_ASC_NODE": 167.3261, "ARG_OF_PERICENTER": 272.3415, "MEAN_ANOMALY": 87.7394, "EPHEMERIS_TYPE": 0, "CLASSIFICATION_TYPE": "U", "NORAD_CAT_ID": 66846, "ELEMENT_SET_NO": 999, "REV_AT_EPOCH": 469, "BSTAR": 0.0010222712, "MEAN_MOTION_DOT": 0.00063288, "MEAN_MOTION_DDOT": 0}, "tle": {"line1": "1 66846U 25280AB  25358.06996280  .00063288  00000+0  10223-2 0  9996", "line2": "2 66846  70.0007 167.3261 0003300 272.3415  87.7394 15.52546147  4699"}}, "geometry": {"type": "Point", "coordinates": [-22.302448732982754, 21.2446850720804]}}, {"type": "Feature", "properties": {"norad_id": 66847, "name": "STARLINK-36061", "group": "last-30-days", "lat": 19.455859003281493, "lon": -21.556551246929246, "alt_km": 409.53952235267843, "timestamp": "2025-12-24T14:43:27.721481+00:00", "meta": {"OBJECT_NAME": "STARLINK-36061", "OBJECT_ID": "2025-280AC", "EPOCH": "2025-12-24T04:45:48.888864", "MEAN_MOTION": 15.52555832, "ECCENTRICITY": 0.00031962, "INCLINATION": 70.0008, "RA_OF_ASC_NODE": 166.972, "ARG_OF_PERICENTER": 275.0079, "MEAN_ANOMALY": 85.0743, "EPHEMERIS_TYPE": 0, "CLASSIFICATION_TYPE": "U", "NORAD_CAT_ID": 66847, "ELEMENT_SET_NO": 999, "REV_AT_EPOCH": 471, "BSTAR": 0.0019161513, "MEAN_MOTION_DOT": 0.00119663, "MEAN_MOTION_DDOT": 0}, "tle": {"line1": "1 66847U 25280AC  25358.19848251  .00119663  00000+0  19162-2 0  9995", "line2": "2 66847  70.0008 166.9720 0003196 275.0079  85.0743 15.52555832  4718"}}, "geometry": {"type": "Point", "coordinates": [-21.556551246929246, 19.455859003281493]}}, {"type": "Feature", "properties": {"norad_id": 66848, "name": "STARLINK-36091", "group": "last-30-days", "lat": -41.96722434761049, "lon": -24.5685884032701, "alt_km": 398.79919695886474, "timestamp": "2025-12-24T14:43:27.721492+00:00", "meta": {"OBJECT_NAME": "STARLINK-36091", "OBJECT_ID": "2025-281A", "EPOCH": "2025-12-24T06:00:02.000160", "MEAN_MOTION": 15.58608664, "ECCENTRICITY": 0.00012447, "INCLINATION": 42.9996, "RA_OF_ASC_NODE": 52.4131, "ARG_OF_PERICENTER": 279.0332, "MEAN_ANOMALY": 121.2658, "EPHEMERIS_TYPE": 0, "CLASSIFICATION_TYPE": "U", "NORAD_CAT_ID": 66848, "ELEMENT_SET_NO": 999, "REV_AT_EPOCH": 323, "BSTAR": -0.029310092, "MEAN_MOTION_DOT": -0.02060972, "MEAN_MOTION_DDOT": 0}, "tle": {"line1": "1 66848U 25281A   25358.25002315 -.02060972  00000+0 -29310-1 0  9994", "line2": "2 66848  42.9996  52.4131 0001244 279.0332 121.2658 15.58608664  3238"}}, "geometry": {"type": "Point", "coordinates": [-24.5685884032701, -41.96722434761049]}}]}